#dP2023  5 22  0  0  0.00000000      96 __u+U ITR00 EXT  IAC
## 2263  86400.00000000   900.00000000 60086 0.0000000000000
+  119   C06C07C08C09C10C11C12C13C14C16C19C20C21C22C23C24C25
+        C26C27C28C29C30C32C33C34C35C36C37C38C39C40C41C42C43
+        C44C45C46E02E03E04E05E07E08E09E10E11E12E13E14E15E18
+        E19E21E24E25E26E27E30E31E33E34E36G01G02G03G04G05G06
+        G07G08G09G10G11G12G13G14G15G16G17G18G19G20G21G22G23
+        G24G25G26G27G28G29G30G31G32J02J03J04R01R02R03R04R05
+        R07R08R09R11R12R13R14R15R16R17R18R19R20R21R22R24R25
++        10 10 12 11  8  8  8 13  9  9  9  8  7 10  8  9  9
++         8  7  7  7  8 10  8  7  8  9  9  9  8 10  9  7  8
++         8  8  9  8  8  8  8  7  6  8  8  8  8  7  7  8  8
++         8  7 10  9  7  9  9 10  7  8  7  8  7  6  8  8  8
++         8  7  7  7  8  7  7  9  7  7  8  8  8  7  7  6  8
++         8  8  7  6  8  8  6  8  6 10  9 10  7  7  7  7  9
++         7  8 10  7 10  9  9  9  9  8  8  8  8  7  7  8  8
%c M  cc GPS ccc cccc cccc cccc cccc ccccc ccccc ccccc ccccc
%c cc cc ccc ccc cccc cccc cccc cccc ccccc ccccc ccccc ccccc
%f  0.0000000  0.000000000  0.00000000000  0.000000000000000
%f  0.0000000  0.000000000  0.00000000000  0.000000000000000
%i    0    0    0    0      0      0      0      0         0
%i    0    0    0    0      0      0      0      0         0
/* IAC                                ULTRA-RAPID PREDICTION
/* S/V CLOCKS ARE ALIGNED TO GNSS TIME                      
/* G:C1WC2W R:C1PC2P E:C1XC5X C:C2IC6I J:C1CC2S             
/* PCV:IGS20_2247 OL/AL:FES2004  NONE     YN ORB:CoN CLK:CoN
*  2023 05 22 23 45  0.00000000
PC06 -14286.733149  38991.642161   6506.798022   -188.426806
PC07  -3047.698564  32017.137892  27400.817842    -59.189421
PC08 -14137.805280  20498.077807 -34079.572248    479.087282
PC09  -7759.929528  37961.047361  16383.995780    622.623300
PC10   5306.726988  35429.096884  22929.236598    -65.490659
PC11   -209.624659  25891.763598 -10374.123852    633.755952
PC12 -11708.817829  24198.721495   7532.681681    658.257540
PC13  -5597.238153  22332.248325 -35209.004496    280.443933
PC14  10855.728050  22390.866432 -12677.465979    298.323790
PC16 -16632.269700  38474.544563   2989.342985     69.396258
PC19 -17913.189992 -20992.880722   4061.578177   -913.293280
PC20  -3530.371229 -20705.852299  18368.400807    551.322978
PC21 -14144.715529   7866.291637 -22711.004881   -916.743102
PC22 -22687.297200  -9167.866536 -13382.383848   -475.767458
PC23  25676.661171    802.323455  10908.490159   -935.804983
PC24  -9346.239811  17447.239967  19671.535127    -23.512499
PC25  12905.245909  12169.578764  21531.503885    131.961206
PC26 -23752.507170  12821.223502   7137.777778   -124.118068
PC27  15222.995165 -18334.786862 -14555.001537    144.127761
PC28  16311.281621    -92.707552 -22642.912438    106.736877
PC29  -8118.843305 -20163.161823  17491.194937    123.962297
PC30   5107.293548 -27419.075841   1225.293261     -0.488211
PC32  14194.914075  -7896.821438  22711.787383   -558.544922
PC33  18034.156562  20914.334801  -4099.235888   -884.827893
PC34  -4215.566335  27457.789761  -2547.588574    176.594464
PC35 -16244.172547   -181.474272  22671.707466    622.345187
PC36 -11881.100135 -12822.644700 -21727.871264   -426.120370
PC37  24599.636954 -11661.776019  -6072.726055   -784.072455
PC38 -22018.354745  21552.190567 -28820.769361     80.130728
PC39 -17734.025893  38008.742222  -2954.619951     -3.047359
PC40  -5697.648252  28108.969196  30986.256305    -24.001972
PC41  22854.642232   9617.608134  12873.631996   -938.227944
PC42   2328.621120  20226.501360 -19052.318852   -680.495740
PC43   7665.044950  20822.869682 -16924.195010     22.656950
PC44 -14654.385464  18695.873933  14602.034258    114.913344
PC45 -25852.047089   -412.530540 -10522.267445   -100.969767
PC46   7669.290909 -17349.835254 -20454.969025    -56.016028
PE02  -7836.792494  15036.531005  24258.822715     39.694872
PE03  -3199.174051  26089.582687 -13622.907179    -19.051585
PE04 -10069.459745 -27517.089493  -4163.808207   -128.218556
PE05 -14913.299034   9260.840318 -23824.118981    -64.967555
PE07  17720.246286  13042.385954  19818.299166    -47.075604
PE08   9931.930586  27618.032414   3913.234782    -87.245464
PE09 -17592.522013 -13202.619335 -19791.203392    -24.019789
PE10 -11714.555396 -10918.653798  24881.298858   -535.691734
PE11 -19321.255139  -1345.207224  22362.123158   2004.600176
PE12  -3019.081696 -18085.291645  23233.675786   -549.674909
PE13  18845.388125   1985.540782 -22745.248259    -19.205418
PE14  13032.189947  27530.808715 -10387.256635    232.774619
PE15   2700.698163  18224.271932 -23165.893800    -23.789242
PE18  -7585.484693 -21908.237526   5417.829484     95.104934
PE19   5072.823592 -24557.442643  15739.964286  -2471.925664
PE21  24538.356214  -4409.629820 -15959.345178   -530.655975
PE24 -27755.911802  -9947.683502  -2739.783937   -113.584077
PE25 -24742.230188   4172.308738  15707.596689   -605.509161
PE26  23715.354034 -15673.428992  -8261.820345    112.093457
PE27  27996.316976   9386.509851   2025.234178    -56.108230
PE30  14317.248682  17677.765347  18923.444167   -194.665919
PE31 -14937.505905 -17502.563095 -18615.044842   -524.322441
PE33  14920.465067 -23577.139551   9900.446618   -444.109335
PE34 -14748.636643  23618.622033 -10056.438487    -46.838833
PE36 -23740.137625  15195.731693   9013.149207    -60.101307
PG01 -11553.987275  20591.010672 -12133.337758    183.395329
PG02 -21376.621835  12070.421499  10526.878065   -593.461095
PG03  -2498.436298  14776.941393 -22066.690776   -295.190621
PG04  -1101.395482  25274.439165  -7884.849891     48.399911
PG05  19053.100772  -6964.243593  17032.003885   -128.220181
PG06  18204.672163    845.574182 -19297.962192    587.674547
PG07   3230.352551  16871.068764  20596.123032    171.603064
PG08  -8421.633376  17767.570224  17595.883967   -123.736288
PG09   7329.544958  25434.311522   1820.230310   -152.895556
PG10 -23582.536949 -11434.115507   5415.398526    -38.038389
PG11  22665.095313 -11133.210840  -8166.270547   -206.752102
PG12   6590.072819 -13757.280557 -22019.596476   -379.320878
PG13  13236.651346 -10385.808287  20322.476640    523.708813
PG14  21577.696462  13606.580205   7684.851293     65.879391
PG15   6097.031953 -19284.052906  16624.599268     41.983551
PG16 -21953.755970   1830.635115  14848.928187   -498.640977
PG17  12936.032827  17158.465241 -15114.526610    715.764188
PG18  -5521.579438 -14552.610636  21498.479023   -277.352834
PG19  14888.543253   8956.668696 -20399.517614    320.499396
PG20  24450.445573  -3355.888043   9592.658323    432.118228
PG21 -16692.040701  19885.579419  -1991.673819    153.661182
PG22 -15217.395598  -5125.025556 -20734.032944    485.782488
PG23 -15083.897409 -15444.618554  15577.896919     26.441387
PG24  13035.322882 -21838.021456  -7213.536173   -198.412772
PG25  -6833.980287 -16827.340467 -19781.808976    444.700830
PG26 -26210.115695  -3932.408222   3472.524056    240.428874
PG27 -13850.326320   6136.282425  21531.742664     31.871473
PG28 -17404.512548  -2526.579634 -19924.293990     79.701948
PG29  -3069.344357 -26326.199456   -694.677282   -600.373790
PG30  13314.096622   9125.291567  21231.695427   -515.641953
PG31 -22393.179986   7154.582450 -12962.533063   -216.648356
PG32 -15059.889202 -14206.484439 -16568.911874   -482.933893
PJ02 -28176.906450  22024.324709  27386.927416     -0.088741
PJ03 -32230.097279  26264.865006  11953.218668      4.724935
PJ04 -23917.895706  21279.442204 -22293.867195     94.717032
PR01  17709.578968  15136.393661  10416.250055     58.012202
PR02  12512.280213   -351.574351  22264.065093    -22.789133
PR03    692.284748 -15492.179752  20320.367800     78.313610
PR04 -11187.491026 -21742.043567   7315.087389    188.229381
PR05 -17002.874262 -16359.884328  -9701.293578    112.982388
PR07    -85.335802  15965.410317 -19833.779566     56.441179
PR08  11458.629032  21665.560939  -6958.705201    -70.874843
PR09 -24343.273623   5578.656330   4999.369863    121.655683
PR11   4876.760979  10329.687299  22819.725767    -61.848799
PR12  21902.047310   3727.171319  12547.272395     27.491658
PR13  24934.332449  -4411.105847  -3097.015901    -35.323393
PR14  12847.720558 -10801.828873 -19202.371674     24.706717
PR15  -6124.788558 -10240.260059 -22523.862824     89.206419
PR16 -21729.159458  -3612.268649 -12821.576128     14.836225
PR17  11020.372327 -22965.374287   -913.692481    632.323191
PR18   2297.469385 -20597.660295  14915.272329     82.868808
PR19  -6747.138181  -9140.178570  22831.034436   -233.559150
PR20 -14554.181708  11359.034252  17580.456568    -93.306461
PR21 -10562.616604  23224.067351   -626.678136     -9.504975
PR22  -2135.306674  20127.439620 -15492.781099     81.008511
PR24  14529.725555 -12288.186124 -16970.427101    172.653644
PR25 -12148.447461  22415.951568   1059.628739     61.802904
EOF
